[{"OBJECT_NAME":"STARLINK-2453","OBJECT_ID":"2021-018BL","EPOCH":"2026-03-09T17:10:23.028384","MEAN_MOTION":15.06398266,"ECCENTRICITY":0.00012959,"INCLINATION":53.0568,"RA_OF_ASC_NODE":251.5027,"ARG_OF_PERICENTER":88.8704,"MEAN_ANOMALY":271.2433,"EPHEMERIS_TYPE":0,"CLASSIFICATION_TYPE":"U","NORAD_CAT_ID":47845,"ELEMENT_SET_NO":999,"REV_AT_EPOCH":27660,"BSTAR":4.2929862e-5,"MEAN_MOTION_DOT":3.58e-6,"MEAN_MOTION_DDOT":0},{"OBJECT_NAME":"OBJECT H","OBJECT_ID":"2017-042H","EPOCH":"2026-03-09T21:54:40.929408","MEAN_MOTION":15.07257911,"ECCENTRICITY":0.00117342,"INCLINATION":97.4058,"RA_OF_ASC_NODE":233.05,"ARG_OF_PERICENTER":93.954,"MEAN_ANOMALY":266.303,"EPHEMERIS_TYPE":0,"CLASSIFICATION_TYPE":"U","NORAD_CAT_ID":42832,"ELEMENT_SET_NO":999,"REV_AT_EPOCH":47198,"BSTAR":0.00041037265,"MEAN_MOTION_DOT":6.138e-5,"MEAN_MOTION_DDOT":0}]
